CCSDS_OMM_VERS = 2.0
CREATION_DATE  = 
ORIGINATOR     = 

OBJECT_NAME    = SL-3 R/B
OBJECT_ID      = 1982-079B
CENTER_NAME    = EARTH
REF_FRAME      = TEME
TIME_SYSTEM    = UTC
MEAN_ELEMENT_THEORY = SGP/SGP4

EPOCH          = 2025-12-14T21:55:56.036928
MEAN_MOTION    = 15.23616727
ECCENTRICITY   = .00270667
INCLINATION    = 81.1469
RA_OF_ASC_NODE = 293.0980
ARG_OF_PERICENTER = 92.0642
MEAN_ANOMALY   = 268.3690

EPHEMERIS_TYPE = 0
CLASSIFICATION_TYPE = U
NORAD_CAT_ID   = 13403
ELEMENT_SET_NO = 999
REV_AT_EPOCH   = 36478
BSTAR          = .19332062E-3
MEAN_MOTION_DOT = .4702E-4
MEAN_MOTION_DDOT = 0

CCSDS_OMM_VERS = 2.0
CREATION_DATE  = 
ORIGINATOR     = 

OBJECT_NAME    = SL-14 R/B
OBJECT_ID      = 1982-092B
CENTER_NAME    = EARTH
REF_FRAME      = TEME
TIME_SYSTEM    = UTC
MEAN_ELEMENT_THEORY = SGP/SGP4

EPOCH          = 2025-12-14T16:46:47.353152
MEAN_MOTION    = 14.86557797
ECCENTRICITY   = .0019284
INCLINATION    = 82.5682
RA_OF_ASC_NODE = 220.8796
ARG_OF_PERICENTER = 220.1244
MEAN_ANOMALY   = 197.1795

EPHEMERIS_TYPE = 0
CLASSIFICATION_TYPE = U
NORAD_CAT_ID   = 13553
ELEMENT_SET_NO = 999
REV_AT_EPOCH   = 31630
BSTAR          = .60737321E-4
MEAN_MOTION_DOT = .564E-5
MEAN_MOTION_DDOT = 0

CCSDS_OMM_VERS = 2.0
CREATION_DATE  = 
ORIGINATOR     = 

OBJECT_NAME    = SL-3 R/B
OBJECT_ID      = 1983-010B
CENTER_NAME    = EARTH
REF_FRAME      = TEME
TIME_SYSTEM    = UTC
MEAN_ELEMENT_THEORY = SGP/SGP4

EPOCH          = 2025-12-14T18:45:40.994208
MEAN_MOTION    = 15.43522080
ECCENTRICITY   = .00170854
INCLINATION    = 81.1030
RA_OF_ASC_NODE = 106.1257
ARG_OF_PERICENTER = 343.9596
MEAN_ANOMALY   = 16.1104

EPHEMERIS_TYPE = 0
CLASSIFICATION_TYPE = U
NORAD_CAT_ID   = 13819
ELEMENT_SET_NO = 999
REV_AT_EPOCH   = 34483
BSTAR          = .27377324E-3
MEAN_MOTION_DOT = .12376E-3
MEAN_MOTION_DDOT = 0

CCSDS_OMM_VERS = 2.0
CREATION_DATE  = 
ORIGINATOR     = 

OBJECT_NAME    = SL-3 R/B
OBJECT_ID      = 1983-075B
CENTER_NAME    = EARTH
REF_FRAME      = TEME
TIME_SYSTEM    = UTC
MEAN_ELEMENT_THEORY = SGP/SGP4

EPOCH          = 2025-12-14T22:29:07.115424
MEAN_MOTION    = 15.36185120
ECCENTRICITY   = .00230026
INCLINATION    = 97.6104
RA_OF_ASC_NODE = 345.4945
ARG_OF_PERICENTER = 167.6484
MEAN_ANOMALY   = 192.5328

EPHEMERIS_TYPE = 0
CLASSIFICATION_TYPE = U
NORAD_CAT_ID   = 14208
ELEMENT_SET_NO = 999
REV_AT_EPOCH   = 31713
BSTAR          = .23417411E-3
MEAN_MOTION_DOT = .8242E-4
MEAN_MOTION_DDOT = 0

CCSDS_OMM_VERS = 2.0
CREATION_DATE  = 
ORIGINATOR     = 

OBJECT_NAME    = COSMOS 1536
OBJECT_ID      = 1984-013A
CENTER_NAME    = EARTH
REF_FRAME      = TEME
TIME_SYSTEM    = UTC
MEAN_ELEMENT_THEORY = SGP/SGP4

EPOCH          = 2025-12-14T20:14:57.767424
MEAN_MOTION    = 15.22544457
ECCENTRICITY   = .00136778
INCLINATION    = 82.5455
RA_OF_ASC_NODE = 192.0779
ARG_OF_PERICENTER = 217.6339
MEAN_ANOMALY   = 142.3942

EPHEMERIS_TYPE = 0
CLASSIFICATION_TYPE = U
NORAD_CAT_ID   = 14699
ELEMENT_SET_NO = 999
REV_AT_EPOCH   = 25970
BSTAR          = .23203599E-3
MEAN_MOTION_DOT = .5427E-4
MEAN_MOTION_DDOT = 0

CCSDS_OMM_VERS = 2.0
CREATION_DATE  = 
ORIGINATOR     = 

OBJECT_NAME    = SL-14 R/B
OBJECT_ID      = 1984-027B
CENTER_NAME    = EARTH
REF_FRAME      = TEME
TIME_SYSTEM    = UTC
MEAN_ELEMENT_THEORY = SGP/SGP4

EPOCH          = 2025-12-14T21:53:59.615520
MEAN_MOTION    = 14.85876652
ECCENTRICITY   = .00164065
INCLINATION    = 82.5413
RA_OF_ASC_NODE = 324.5183
ARG_OF_PERICENTER = 252.8996
MEAN_ANOMALY   = 107.0424

EPHEMERIS_TYPE = 0
CLASSIFICATION_TYPE = U
NORAD_CAT_ID   = 14820
ELEMENT_SET_NO = 999
REV_AT_EPOCH   = 23504
BSTAR          = .62785715E-4
MEAN_MOTION_DOT = .572E-5
MEAN_MOTION_DDOT = 0

CCSDS_OMM_VERS = 2.0
CREATION_DATE  = 
ORIGINATOR     = 

OBJECT_NAME    = SL-8 R/B
OBJECT_ID      = 1985-006B
CENTER_NAME    = EARTH
REF_FRAME      = TEME
TIME_SYSTEM    = UTC
MEAN_ELEMENT_THEORY = SGP/SGP4

EPOCH          = 2025-12-14T22:19:20.543232
MEAN_MOTION    = 14.37722378
ECCENTRICITY   = .00187806
INCLINATION    = 74.0467
RA_OF_ASC_NODE = 57.1052
ARG_OF_PERICENTER = 348.8238
MEAN_ANOMALY   = 184.5092

EPHEMERIS_TYPE = 0
CLASSIFICATION_TYPE = U
NORAD_CAT_ID   = 15483
ELEMENT_SET_NO = 999
REV_AT_EPOCH   = 14184
BSTAR          = .89004024E-4
MEAN_MOTION_DOT = .242E-5
MEAN_MOTION_DDOT = 0

CCSDS_OMM_VERS = 2.0
CREATION_DATE  = 
ORIGINATOR     = 

OBJECT_NAME    = SL-12 R/B(2)
OBJECT_ID      = 1985-042D
CENTER_NAME    = EARTH
REF_FRAME      = TEME
TIME_SYSTEM    = UTC
MEAN_ELEMENT_THEORY = SGP/SGP4

EPOCH          = 2025-12-14T22:16:23.895840
MEAN_MOTION    = 14.21952630
ECCENTRICITY   = .00375566
INCLINATION    = 71.1084
RA_OF_ASC_NODE = 266.7970
ARG_OF_PERICENTER = 258.2997
MEAN_ANOMALY   = 169.8194

EPHEMERIS_TYPE = 0
CLASSIFICATION_TYPE = U
NORAD_CAT_ID   = 15772
ELEMENT_SET_NO = 999
REV_AT_EPOCH   = 10234
BSTAR          = .34578262E-4
MEAN_MOTION_DOT = .29E-6
MEAN_MOTION_DDOT = 0

CCSDS_OMM_VERS = 2.0
CREATION_DATE  = 
ORIGINATOR     = 

OBJECT_NAME    = SL-14 R/B
OBJECT_ID      = 1985-069B
CENTER_NAME    = EARTH
REF_FRAME      = TEME
TIME_SYSTEM    = UTC
MEAN_ELEMENT_THEORY = SGP/SGP4

EPOCH          = 2025-12-14T18:55:22.260576
MEAN_MOTION    = 14.86327248
ECCENTRICITY   = .00202376
INCLINATION    = 82.5268
RA_OF_ASC_NODE = 104.7769
ARG_OF_PERICENTER = 112.1687
MEAN_ANOMALY   = 248.1680

EPHEMERIS_TYPE = 0
CLASSIFICATION_TYPE = U
NORAD_CAT_ID   = 15945
ELEMENT_SET_NO = 999
REV_AT_EPOCH   = 16022
BSTAR          = .76009552E-4
MEAN_MOTION_DOT = .696E-5
MEAN_MOTION_DDOT = 0

CCSDS_OMM_VERS = 2.0
CREATION_DATE  = 
ORIGINATOR     = 

OBJECT_NAME    = SL-16 R/B
OBJECT_ID      = 1985-097B
CENTER_NAME    = EARTH
REF_FRAME      = TEME
TIME_SYSTEM    = UTC
MEAN_ELEMENT_THEORY = SGP/SGP4

EPOCH          = 2025-12-14T21:21:24.481152
MEAN_MOTION    = 14.16585433
ECCENTRICITY   = .00068225
INCLINATION    = 71.0035
RA_OF_ASC_NODE = 319.0762
ARG_OF_PERICENTER = 7.5277
MEAN_ANOMALY   = 12.5767

EPHEMERIS_TYPE = 0
CLASSIFICATION_TYPE = U
NORAD_CAT_ID   = 16182
ELEMENT_SET_NO = 999
REV_AT_EPOCH   = 7522
BSTAR          = .17628713E-3
MEAN_MOTION_DOT = .304E-5
MEAN_MOTION_DDOT = 0

CCSDS_OMM_VERS = 2.0
CREATION_DATE  = 
ORIGINATOR     = 

OBJECT_NAME    = SL-14 R/B
OBJECT_ID      = 1986-006B
CENTER_NAME    = EARTH
REF_FRAME      = TEME
TIME_SYSTEM    = UTC
MEAN_ELEMENT_THEORY = SGP/SGP4

EPOCH          = 2025-12-14T23:43:14.125152
MEAN_MOTION    = 14.86674655
ECCENTRICITY   = .00763527
INCLINATION    = 82.5266
RA_OF_ASC_NODE = 339.4351
ARG_OF_PERICENTER = 192.3058
MEAN_ANOMALY   = 167.6298

EPHEMERIS_TYPE = 0
CLASSIFICATION_TYPE = U
NORAD_CAT_ID   = 16496
ELEMENT_SET_NO = 999
REV_AT_EPOCH   = 13662
BSTAR          = .70626428E-4
MEAN_MOTION_DOT = .688E-5
MEAN_MOTION_DDOT = 0

CCSDS_OMM_VERS = 2.0
CREATION_DATE  = 
ORIGINATOR     = 

OBJECT_NAME    = COSMOS 1743
OBJECT_ID      = 1986-034A
CENTER_NAME    = EARTH
REF_FRAME      = TEME
TIME_SYSTEM    = UTC
MEAN_ELEMENT_THEORY = SGP/SGP4

EPOCH          = 2025-12-14T21:51:28.665216
MEAN_MOTION    = 15.52282717
ECCENTRICITY   = .00047128
INCLINATION    = 82.5342
RA_OF_ASC_NODE = 162.3366
ARG_OF_PERICENTER = 243.6832
MEAN_ANOMALY   = 116.3937

EPHEMERIS_TYPE = 0
CLASSIFICATION_TYPE = U
NORAD_CAT_ID   = 16719
ELEMENT_SET_NO = 999
REV_AT_EPOCH   = 16707
BSTAR          = .37306257E-3
MEAN_MOTION_DOT = .2274E-3
MEAN_MOTION_DDOT = 0

