SL-3 R/B                
1 13403U 82079B   25348.91384302  .00004702  00000+0  19332-3 0  9992
2 13403  81.1469 293.0980 0027066  92.0642 268.3690 15.23616727364789
SL-14 R/B               
1 13553U 82092B   25348.69915918  .00000564  00000+0  60737-4 0  9999
2 13553  82.5682 220.8796 0019284 220.1244 197.1795 14.86557797316304
SL-3 R/B                
1 13819U 83010B   25348.78172447  .00012376  00000+0  27377-3 0  9993
2 13819  81.1030 106.1257 0017085 343.9596  16.1104 15.43522080344834
SL-3 R/B                
1 14208U 83075B   25348.93688791  .00008242  00000+0  23417-3 0  9996
2 14208  97.6104 345.4945 0023002 167.6484 192.5328 15.36185120317138
COSMOS 1536             
1 14699U 84013A   25348.84372416  .00005427  00000+0  23204-3 0  9993
2 14699  82.5455 192.0779 0013677 217.6339 142.3942 15.22544457259707
SL-14 R/B               
1 14820U 84027B   25348.91249555  .00000572  00000+0  62786-4 0  9994
2 14820  82.5413 324.5183 0016406 252.8996 107.0424 14.85876652235048
SL-8 R/B                
1 15483U 85006B   25348.93009888  .00000242  00000+0  89004-4 0  9999
2 15483  74.0467  57.1052 0018780 348.8238 184.5092 14.37722378141842
SL-12 R/B(2)            
1 15772U 85042D   25348.92805435  .00000029  00000+0  34578-4 0  9990
2 15772  71.1084 266.7970 0037556 258.2997 169.8194 14.21952630102341
SL-14 R/B               
1 15945U 85069B   25348.78845209  .00000696  00000+0  76010-4 0  9995
2 15945  82.5268 104.7769 0020237 112.1687 248.1680 14.86327248160226
SL-16 R/B               
1 16182U 85097B   25348.88986668  .00000304  00000+0  17629-3 0  9992
2 16182  71.0035 319.0762 0006822   7.5277  12.5767 14.16585433 75224
SL-14 R/B               
1 16496U 86006B   25348.98835793  .00000688  00000+0  70626-4 0  9996
2 16496  82.5266 339.4351 0076352 192.3058 167.6298 14.86674655136625
COSMOS 1743             
1 16719U 86034A   25348.91074844  .00022740  00000+0  37306-3 0  9990
2 16719  82.5342 162.3366 0004712 243.6832 116.3937 15.52282717167070
